     2              GLONASS NAVMESS DATA                    RINEX VERSION / TYPE
LEICA GEO OFFICE 7.0                    31-5-20 14:16       PGM / RUN BY / DATE
                                                            END OF HEADER
 7 20  5 13  4 15  0.0-3.644544631243D-05 0.000000000000D+00 1.527000000000D+04
    1.170533593750D+04 2.550714492798D+00-9.313225746155D-10 0.000000000000D+00
   -4.951703613281D+03 1.621858596802D+00 0.000000000000D+00 5.000000000000D+00
    2.215133886719D+04-9.907073974609D-01-2.793967723846D-09 0.000000000000D+00
 7 20  5 13  4 45  0.0-3.644544631243D-05 0.000000000000D+00 1.635000000000D+04
    1.623941406250D+04 2.437992095947D+00 0.000000000000D+00 0.000000000000D+00
   -2.509591796875D+03 1.082906723022D+00 0.000000000000D+00 5.000000000000D+00
    1.953755957031D+04-1.894873619080D+00-2.793967723846D-09 0.000000000000D+00
 8 20  5 13  4 45  0.0-5.217827856541D-05 0.000000000000D+00 1.728000000000D+04
    5.217309570313D+02 2.770371437073D+00-1.862645149231D-09 0.000000000000D+00
   -1.175628857422D+04 1.369691848755D+00 0.000000000000D+00 6.000000000000D+00
    2.269173583984D+04 6.464281082153D-01-1.862645149231D-09 0.000000000000D+00
 8 20  5 13  5 15  0.0-5.217734724283D-05 0.000000000000D+00 1.806000000000D+04
    5.735698242188D+03 2.976060867310D+00-9.313225746155D-10 0.000000000000D+00
   -9.637005371094D+03 9.642353057861D-01 0.000000000000D+00 6.000000000000D+00
    2.296877441406D+04-3.406162261963D-01-1.862645149231D-09 0.000000000000D+00
 8 20  5 13  5 45  0.0-5.217641592026D-05 0.000000000000D+00 1.983000000000D+04
    1.105717724609D+04 2.885970115662D+00 0.000000000000D+00 0.000000000000D+00
   -8.329102050781D+03 4.856920242310D-01 0.000000000000D+00 6.000000000000D+00
    2.148102685547D+04-1.301873207092D+00-2.793967723846D-09 0.000000000000D+00
 9 20  5 13  5 15  0.0 1.322971656919D-04 2.728484105319D-12 1.956000000000D+04
    1.699994775391D+04-1.955461502075D+00 0.000000000000D+00 0.000000000000D+00
   -2.953911132813D+03 1.670728683472D+00 0.000000000000D+00-2.000000000000D+00
    1.882792089844D+04 2.022495269775D+00-2.793967723846D-09 0.000000000000D+00
 9 20  5 13  5 45  0.0 1.323018223047D-04 2.728484105319D-12 1.980000000000D+04
    1.344441162109D+04-1.950693130493D+00-9.313225746155D-10 0.000000000000D+00
    5.764526367188D+02 2.231934547424D+00 0.000000000000D+00-2.000000000000D+00
    2.169611035156D+04 1.143631935120D+00-1.862645149231D-09 0.000000000000D+00
 9 20  5 13  6 15  0.0 1.323055475950D-04 1.818989403546D-12 2.256000000000D+04
    1.012418554688D+04-1.702682495117D+00-9.313225746155D-10 0.000000000000D+00
    4.979644042969D+03 2.624914169312D+00 9.313225746155D-10-2.000000000000D+00
    2.289140820313D+04 1.756963729858D-01-1.862645149231D-09 0.000000000000D+00
 9 20  5 13  6 45  0.0 1.323102042079D-04 1.818989403546D-12 2.340000000000D+04
    7.419442382813D+03-1.281097412109D+00-9.313225746155D-10 0.000000000000D+00
    9.876934082031D+03 2.770458221436D+00 9.313225746155D-10-2.000000000000D+00
    2.231976806641D+04-8.069391250610D-01-9.313225746155D-10 0.000000000000D+00
 9 20  5 13  7 15  0.0 1.323139294982D-04 1.818989403546D-12 2.520000000000D+04
    5.558854492188D+03-7.821598052979D-01-1.862645149231D-09 0.000000000000D+00
    1.477843408203D+04 2.626076698303D+00 9.313225746155D-10-2.000000000000D+00
    2.002320019531D+04-1.728433609009D+00 0.000000000000D+00 0.000000000000D+00
 9 20  5 13  7 45  0.0 1.323148608208D-04 1.818989403546D-12 2.700000000000D+04
    4.586098632813D+03-3.122301101685D-01-9.313225746155D-10 0.000000000000D+00
    1.915703515625D+04 2.193593978882D+00 1.862645149231D-09-2.000000000000D+00
    1.617719921875D+04-2.517279624939D+00 0.000000000000D+00 0.000000000000D+00
10 20  5 13  6 45  0.0-5.825888365507D-05 0.000000000000D+00 2.376000000000D+04
    1.304993066406D+04-1.295808792114D+00 0.000000000000D+00 0.000000000000D+00
   -3.797373046875D+03 2.658226013184D+00 0.000000000000D+00-7.000000000000D+00
    2.156035058594D+04 1.257872581482D+00-2.793967723846D-09 0.000000000000D+00
10 20  5 13  7 15  0.0-5.825981497765D-05 0.000000000000D+00 2.520000000000D+04
    1.100357958984D+04-9.512901306152D-01-9.313225746155D-10 0.000000000000D+00
    1.334638183594D+03 2.999963760376D+00 9.313225746155D-10-7.000000000000D+00
    2.296005810547D+04 2.874183654785D-01-1.862645149231D-09 0.000000000000D+00
10 20  5 13  7 45  0.0-5.826074630022D-05 0.000000000000D+00 2.700000000000D+04
    9.691966308594D+03-4.962177276611D-01-9.313225746155D-10 0.000000000000D+00
    6.829028808594D+03 3.054063796997D+00 9.313225746155D-10-7.000000000000D+00
    2.258234228516D+04-7.041845321655D-01-9.313225746155D-10 0.000000000000D+00
12 20  5 13  0 45  0.0 1.302668824792D-04 3.637978807092D-12 2.610000000000D+03
   -2.179640869141D+04-1.628943443298D+00-9.313225746155D-10 0.000000000000D+00
   -3.791843750000D+03-6.261472702026D-01-1.862645149231D-09-1.000000000000D+00
    1.273897998047D+04-2.977069854736D+00 9.313225746155D-10 0.000000000000D+00
12 20  5 13  1 15  0.0 1.302734017372D-04 3.637978807092D-12 3.600000000000D+03
   -2.415029003906D+04-9.519405364990D-01-9.313225746155D-10 0.000000000000D+00
   -4.459769042969D+03-1.419448852539D-01-1.862645149231D-09-1.000000000000D+00
    6.957965820313D+03-3.404698371887D+00 9.313225746155D-10 0.000000000000D+00
13 20  5 13  0 45  0.0-3.863032907248D-05 0.000000000000D+00 2.610000000000D+03
   -9.070317871094D+03-2.817554473877D+00-9.313225746155D-10 0.000000000000D+00
    7.590018554688D+03-1.286283493042D+00-1.862645149231D-09-2.000000000000D+00
    2.258091503906D+04-6.991214752197D-01-9.313225746155D-10 0.000000000000D+00
13 20  5 13  1 15  0.0-3.863126039505D-05 0.000000000000D+00 3.600000000000D+03
   -1.407989941406D+04-2.698106765747D+00-1.862645149231D-09 0.000000000000D+00
    5.727693359375D+03-7.777137756348D-01-1.862645149231D-09-2.000000000000D+00
    2.046424609375D+04-1.637423515320D+00 0.000000000000D+00 0.000000000000D+00
13 20  5 13  1 45  0.0-3.863312304020D-05 0.000000000000D+00 5.400000000000D+03
   -1.860552929688D+04-2.283595085144D+00-1.862645149231D-09 0.000000000000D+00
    4.776173828125D+03-2.923564910889D-01-1.862645149231D-09-2.000000000000D+00
    1.676254833984D+04-2.448797225952D+00 0.000000000000D+00 0.000000000000D+00
13 20  5 13  2 15  0.0-3.863405436277D-05-0.000000000000D+00 7.320000000000D+03
   -2.214992675781D+04-1.618878364563D+00-1.862645149231D-09 0.000000000000D+00
    4.599905761719D+03 6.832981109619D-02-9.313225746155D-10-2.000000000000D+00
    1.176275634766D+04-3.070369720459D+00 9.313225746155D-10 0.000000000000D+00
13 20  5 13  2 45  0.0-3.863498568535D-05 0.000000000000D+00 9.510000000000D+03
   -2.433302929688D+04-7.875909805298D-01-1.862645149231D-09 0.000000000000D+00
    4.900446777344D+03 2.274408340454D-01-9.313225746155D-10-2.000000000000D+00
    5.852316406250D+03-3.454069137573D+00 9.313225746155D-10 0.000000000000D+00
13 20  5 13  3 15  0.0-3.863591700792D-05 0.000000000000D+00 1.080000000000D+04
   -2.495057958984D+04 1.012182235718D-01-1.862645149231D-09 0.000000000000D+00
    5.273312011719D+03 1.457653045654D-01-9.313225746155D-10-2.000000000000D+00
   -5.110288085938D+02-3.570365905762D+00 1.862645149231D-09 0.000000000000D+00
14 20  5 13  0 45  0.0 5.113892257214D-05 0.000000000000D+00 2.580000000000D+03
    8.928491699219D+03-2.307834625244D+00 0.000000000000D+00 0.000000000000D+00
    1.445492871094D+04-1.209183692932D+00 0.000000000000D+00-7.000000000000D+00
    1.904116064453D+04 1.999528884888D+00-2.793967723846D-09 0.000000000000D+00
14 20  5 13  1 15  0.0 5.113985389471D-05 0.000000000000D+00 3.600000000000D+03
    4.277123046875D+03-2.824269294739D+00-9.313225746155D-10 0.000000000000D+00
    1.245268701172D+04-9.816322326660D-01 0.000000000000D+00-7.000000000000D+00
    2.185877929688D+04 1.110850334167D+00-1.862645149231D-09 0.000000000000D+00
14 20  5 13  1 45  0.0 5.113985389471D-05 0.000000000000D+00 5.400000000000D+03
   -1.086669921875D+03-3.088287353516D+00-9.313225746155D-10 0.000000000000D+00
    1.101902929688D+04-5.917034149170D-01-9.313225746155D-10-7.000000000000D+00
    2.298856201172D+04 1.362924575806D-01-1.862645149231D-09 0.000000000000D+00
14 20  5 13  2 15  0.0 5.114078521729D-05 0.000000000000D+00 7.230000000000D+03
   -6.660627929688D+03-3.053689956665D+00-1.862645149231D-09 0.000000000000D+00
    1.036235839844D+04-1.357870101929D-01-9.313225746155D-10-7.000000000000D+00
    2.234295800781D+04-8.490276336670D-01-9.313225746155D-10 0.000000000000D+00
14 20  5 13  2 45  0.0 5.114171653986D-05 0.000000000000D+00 9.450000000000D+03
   -1.189901367188D+04-2.719066619873D+00-1.862645149231D-09 0.000000000000D+00
    1.050562402344D+04 2.794485092163D-01-9.313225746155D-10-7.000000000000D+00
    1.997131347656D+04-1.769095420837D+00 0.000000000000D+00 0.000000000000D+00
14 20  5 13  3 15  0.0 5.114171653986D-05 0.000000000000D+00 1.080000000000D+04
   -1.629476416016D+04-2.128240585327D+00-1.862645149231D-09 0.000000000000D+00
    1.128428076172D+04 5.553817749023D-01-9.313225746155D-10-7.000000000000D+00
    1.605623974609D+04-2.552805900574D+00 0.000000000000D+00 0.000000000000D+00
14 20  5 13  3 45  0.0 5.114264786243D-05 0.000000000000D+00 1.260000000000D+04
   -1.945571777344D+04-1.363329887390D+00-1.862645149231D-09 0.000000000000D+00
    1.237650244141D+04 6.184444427490D-01 0.000000000000D+00-7.000000000000D+00
    1.089975781250D+04-3.139450073242D+00 9.313225746155D-10 0.000000000000D+00
14 20  5 13  4 15  0.0 5.114357918501D-05 0.000000000000D+00 1.521000000000D+04
   -2.116246142578D+04-5.315322875977D-01-1.862645149231D-09 0.000000000000D+00
    1.336065478516D+04 4.329757690430D-01 0.000000000000D+00-7.000000000000D+00
    4.900187500000D+03-3.483447074890D+00 1.862645149231D-09 0.000000000000D+00
